0 SL-12 DEB
1 29325U 89039AG  13283.21736818  .00000561  00000-0  72927-3 0  1829
2 29325 064.9708 305.4089 5606121 318.6310 021.4090 04.49132890116182
0 SL-12 DEB
1 29325U 89039AG  13285.22272671  .00000536  00000-0  63071-3 0  1837
2 29325 064.9721 304.6071 5605997 318.5340 023.8197 04.49136319116275
0 SL-12 DEB
1 29325U 89039AG  13291.00925310  .00000459  00000-0  64347-3 0  1847
2 29325 064.9721 302.2920 5605063 318.2668 020.0363 04.49145807116531
0 SL-12 DEB
1 29325U 89039AG  13293.01284772  .00000513  00000-0  78361-3 0  1853
2 29325 064.9725 301.4907 5604809 318.1727 019.6964 04.49148118116622
0 SL-12 DEB
1 29325U 89039AG  13295.01653574  .00000564  00000-0  86068-3 0  1865
2 29325 064.9730 300.6895 5604480 318.0790 019.5263 04.49151157116717
